start=new Date('2021-11-26T00:00:00.000Z').valueOf();
sats=[{"TLE_LINE1":"1 47819U 21018AJ  21329.69151427  .00002172  00000-0  16463-3 0  9998","RCS_SIZE":"MEDIUM","ELEMENT_SET_NO":"999","RA_OF_ASC_NODE":"77.1806","TLE_LINE2":"2 47819  53.0565  77.1806 0001155  83.0225 277.0895 15.06409401 40772","MEAN_MOTION_DDOT":"0.0000000000000","DECAY_DATE":null,"REV_AT_EPOCH":"4077","MEAN_MOTION_DOT":"0.00002172","BSTAR":"0.00016463000000","FILE":"3224126","ARG_OF_PERICENTER":"83.0225","ECCENTRICITY":"0.00011550","OBJECT_NAME":"STARLINK-2402","REF_FRAME":"TEME","MEAN_ELEMENT_THEORY":"SGP4","LAUNCH_DATE":"2021-03-11","EPOCH":"2021-11-25T16:35:46.832928","NORAD_CAT_ID":"47819","TIME_SYSTEM":"UTC","INCLINATION":"53.0565","PERIOD":"95.592","GP_ID":"190492701","CLASSIFICATION_TYPE":"U","OBJECT_TYPE":"PAYLOAD","OBJECT_ID":"2021-018AJ","CENTER_NAME":"EARTH","MEAN_ANOMALY":"277.0895","MEAN_MOTION":"15.06409401","APOAPSIS":"547.985","SITE":"AFETR","SEMIMAJOR_AXIS":"6925.320","COUNTRY_CODE":"US","EPHEMERIS_TYPE":"0","PERIAPSIS":"546.385"},{"OBJECT_TYPE":"PAYLOAD","OBJECT_ID":"2021-018AK","MEAN_MOTION":"15.06404530","MEAN_ANOMALY":"284.7476","CENTER_NAME":"EARTH","TIME_SYSTEM":"UTC","NORAD_CAT_ID":"47820","EPOCH":"2021-11-25T17:43:27.107616","MEAN_ELEMENT_THEORY":"SGP4","LAUNCH_DATE":"2021-03-11","CLASSIFICATION_TYPE":"U","PERIOD":"95.592","GP_ID":"190493951","INCLINATION":"53.0565","EPHEMERIS_TYPE":"0","COUNTRY_CODE":"US","PERIAPSIS":"546.351","SEMIMAJOR_AXIS":"6925.335","SITE":"AFETR","APOAPSIS":"548.048","DECAY_DATE":null,"REV_AT_EPOCH":"4063","MEAN_MOTION_DOT":"0.00001103","TLE_LINE1":"1 47820U 21018AK  21329.73850819  .00001103  00000-0  92945-4 0  9999","MEAN_MOTION_DDOT":"0.0000000000000","TLE_LINE2":"2 47820  53.0565  86.9613 0001225  75.3649 284.7476 15.06404530 40633","ELEMENT_SET_NO":"999","RCS_SIZE":"LARGE","RA_OF_ASC_NODE":"86.9613","ECCENTRICITY":"0.00012250","REF_FRAME":"TEME","OBJECT_NAME":"STARLINK-2403","FILE":"3224126","BSTAR":"0.00009294500000","ARG_OF_PERICENTER":"75.3649"},{"SEMIMAJOR_AXIS":"6925.343","SITE":"AFETR","APOAPSIS":"548.057","EPHEMERIS_TYPE":"0","COUNTRY_CODE":"US","PERIAPSIS":"546.359","TIME_SYSTEM":"UTC","NORAD_CAT_ID":"47821","EPOCH":"2021-11-25T17:11:34.938240","LAUNCH_DATE":"2021-03-11","MEAN_ELEMENT_THEORY":"SGP4","CLASSIFICATION_TYPE":"U","PERIOD":"95.592","GP_ID":"190494202","INCLINATION":"53.0564","OBJECT_TYPE":"PAYLOAD","OBJECT_ID":"2021-018AL","MEAN_MOTION":"15.06401690","MEAN_ANOMALY":"293.7550","CENTER_NAME":"EARTH","FILE":"3224126","BSTAR":"0.00001641400000","ARG_OF_PERICENTER":"66.3567","ECCENTRICITY":"0.00012260","REF_FRAME":"TEME","OBJECT_NAME":"STARLINK-2406","TLE_LINE1":"1 47821U 21018AL  21329.71637660 -.00000037  00000-0  16414-4 0  9998","MEAN_MOTION_DDOT":"0.0000000000000","TLE_LINE2":"2 47821  53.0564  77.0653 0001226  66.3567 293.7550 15.06401690 40714","RCS_SIZE":"LARGE","RA_OF_ASC_NODE":"77.0653","ELEMENT_SET_NO":"999","DECAY_DATE":null,"REV_AT_EPOCH":"4071","MEAN_MOTION_DOT":"-0.00000037"},{"MEAN_MOTION_DOT":"-0.00000231","REV_AT_EPOCH":"4058","DECAY_DATE":null,"RCS_SIZE":"LARGE","ELEMENT_SET_NO":"999","RA_OF_ASC_NODE":"87.0008","TLE_LINE2":"2 47822  53.0562  87.0008 0001313  81.9700 278.1438 15.06392335 40589","MEAN_MOTION_DDOT":"0.0000000000000","TLE_LINE1":"1 47822U 21018AM  21329.72745967 -.00000231  00000-0  33807-5 0  9992","OBJECT_NAME":"STARLINK-2407","REF_FRAME":"TEME","ECCENTRICITY":"0.00013130","ARG_OF_PERICENTER":"81.9700","BSTAR":"0.00000338070000","FILE":"3224126","CENTER_NAME":"EARTH","MEAN_ANOMALY":"278.1438","MEAN_MOTION":"15.06392335","OBJECT_TYPE":"PAYLOAD","OBJECT_ID":"2021-018AM","INCLINATION":"53.0562","GP_ID":"190492950","PERIOD":"95.593","CLASSIFICATION_TYPE":"U","LAUNCH_DATE":"2021-03-11","MEAN_ELEMENT_THEORY":"SGP4","EPOCH":"2021-11-25T17:27:32.515488","NORAD_CAT_ID":"47822","TIME_SYSTEM":"UTC","PERIAPSIS":"546.328","COUNTRY_CODE":"US","EPHEMERIS_TYPE":"0","APOAPSIS":"548.146","SITE":"AFETR","SEMIMAJOR_AXIS":"6925.372"},{"TIME_SYSTEM":"UTC","NORAD_CAT_ID":"47823","EPOCH":"2021-11-25T16:14:33.038592","LAUNCH_DATE":"2021-03-11","MEAN_ELEMENT_THEORY":"SGP4","CLASSIFICATION_TYPE":"U","GP_ID":"190493200","PERIOD":"95.592","INCLINATION":"53.0564","OBJECT_TYPE":"PAYLOAD","OBJECT_ID":"2021-018AN","MEAN_MOTION":"15.06400569","MEAN_ANOMALY":"288.4554","CENTER_NAME":"EARTH","SEMIMAJOR_AXIS":"6925.347","SITE":"AFETR","APOAPSIS":"548.213","EPHEMERIS_TYPE":"0","COUNTRY_CODE":"US","PERIAPSIS":"546.210","TLE_LINE1":"1 47823U 21018AN  21329.67677128  .00001572  00000-0  12443-3 0  9999","MEAN_MOTION_DDOT":"0.0000000000000","TLE_LINE2":"2 47823  53.0564  77.2368 0001446  71.6593 288.4554 15.06400569 40712","RCS_SIZE":"LARGE","RA_OF_ASC_NODE":"77.2368","ELEMENT_SET_NO":"999","DECAY_DATE":null,"MEAN_MOTION_DOT":"0.00001572","REV_AT_EPOCH":"4071","FILE":"3224126","BSTAR":"0.00012443000000","ARG_OF_PERICENTER":"71.6593","ECCENTRICITY":"0.00014460","REF_FRAME":"TEME","OBJECT_NAME":"STARLINK-2408"},{"TLE_LINE1":"1 47824U 21018AP  21329.73205861 -.00000094  00000-0  12543-4 0  9999","MEAN_MOTION_DDOT":"0.0000000000000","RA_OF_ASC_NODE":"76.9944","RCS_SIZE":"LARGE","ELEMENT_SET_NO":"999","TLE_LINE2":"2 47824  53.0545  76.9944 0001146  50.3511 309.7579 15.06407334 40710","DECAY_DATE":null,"REV_AT_EPOCH":"4071","MEAN_MOTION_DOT":"-0.00000094","FILE":"3224126","BSTAR":"0.00001254300000","ARG_OF_PERICENTER":"50.3511","ECCENTRICITY":"0.00011460","REF_FRAME":"TEME","OBJECT_NAME":"STARLINK-2409","NORAD_CAT_ID":"47824","TIME_SYSTEM":"UTC","LAUNCH_DATE":"2021-03-11","MEAN_ELEMENT_THEORY":"SGP4","EPOCH":"2021-11-25T17:34:09.863904","CLASSIFICATION_TYPE":"U","INCLINATION":"53.0545","PERIOD":"95.592","GP_ID":"190493453","OBJECT_TYPE":"PAYLOAD","OBJECT_ID":"2021-018AP","MEAN_ANOMALY":"309.7579","MEAN_MOTION":"15.06407334","CENTER_NAME":"EARTH","APOAPSIS":"547.985","SITE":"AFETR","SEMIMAJOR_AXIS":"6925.326","EPHEMERIS_TYPE":"0","COUNTRY_CODE":"US","PERIAPSIS":"546.397"},{"TIME_SYSTEM":"UTC","NORAD_CAT_ID":"47825","EPOCH":"2021-11-25T16:25:10.339680","MEAN_ELEMENT_THEORY":"SGP4","LAUNCH_DATE":"2021-03-11","CLASSIFICATION_TYPE":"U","PERIOD":"95.592","GP_ID":"190493704","INCLINATION":"53.0571","OBJECT_ID":"2021-018AQ","OBJECT_TYPE":"PAYLOAD","MEAN_MOTION":"15.06398089","MEAN_ANOMALY":"270.8230","CENTER_NAME":"EARTH","SITE":"AFETR","SEMIMAJOR_AXIS":"6925.354","APOAPSIS":"548.000","EPHEMERIS_TYPE":"0","COUNTRY_CODE":"US","PERIAPSIS":"546.439","TLE_LINE1":"1 47825U 21018AQ  21329.68414745  .00001919  00000-0  14767-3 0  9992","MEAN_MOTION_DDOT":"0.0000000000000","TLE_LINE2":"2 47825  53.0571  77.1892 0001127  89.2888 270.8230 15.06398089 40710","RCS_SIZE":"LARGE","ELEMENT_SET_NO":"999","RA_OF_ASC_NODE":"77.1892","DECAY_DATE":null,"MEAN_MOTION_DOT":"0.00001919","REV_AT_EPOCH":"4071","FILE":"3224126","BSTAR":"0.00014767000000","ARG_OF_PERICENTER":"89.2888","ECCENTRICITY":"0.00011270","REF_FRAME":"TEME","OBJECT_NAME":"STARLINK-2410"},{"OBJECT_ID":"2021-018AR","OBJECT_TYPE":"PAYLOAD","CENTER_NAME":"EARTH","MEAN_ANOMALY":"284.1991","MEAN_MOTION":"15.06389285","MEAN_ELEMENT_THEORY":"SGP4","LAUNCH_DATE":"2021-03-11","EPOCH":"2021-11-25T16:19:52.303008","NORAD_CAT_ID":"47826","TIME_SYSTEM":"UTC","INCLINATION":"53.0566","GP_ID":"190492452","PERIOD":"95.593","CLASSIFICATION_TYPE":"U","COUNTRY_CODE":"US","EPHEMERIS_TYPE":"0","PERIAPSIS":"546.417","APOAPSIS":"548.075","SITE":"AFETR","SEMIMAJOR_AXIS":"6925.381","DECAY_DATE":null,"MEAN_MOTION_DOT":"-0.00000323","REV_AT_EPOCH":"4071","TLE_LINE1":"1 47826U 21018AR  21329.68046647 -.00000323  00000-0 -28158-5 0  9996","RA_OF_ASC_NODE":"77.2213","RCS_SIZE":"LARGE","ELEMENT_SET_NO":"999","TLE_LINE2":"2 47826  53.0566  77.2213 0001197  75.9131 284.1991 15.06389285 40713","MEAN_MOTION_DDOT":"0.0000000000000","ECCENTRICITY":"0.00011970","OBJECT_NAME":"STARLINK-2411","REF_FRAME":"TEME","BSTAR":"-0.00000281580000","FILE":"3224126","ARG_OF_PERICENTER":"75.9131"},{"TLE_LINE1":"1 47827U 21018AS  21329.70624271 -.00000106  00000-0  11791-4 0  9997","MEAN_MOTION_DDOT":"0.0000000000000","RCS_SIZE":"LARGE","ELEMENT_SET_NO":"999","RA_OF_ASC_NODE":"67.1103","TLE_LINE2":"2 47827  53.0558  67.1103 0001377  74.5541 285.5600 15.06393833 40919","DECAY_DATE":null,"MEAN_MOTION_DOT":"-0.00000106","REV_AT_EPOCH":"4091","FILE":"3224126","BSTAR":"0.00001179100000","ARG_OF_PERICENTER":"74.5541","ECCENTRICITY":"0.00013770","REF_FRAME":"TEME","OBJECT_NAME":"STARLINK-2413","NORAD_CAT_ID":"47827","TIME_SYSTEM":"UTC","LAUNCH_DATE":"2021-03-11","MEAN_ELEMENT_THEORY":"SGP4","EPOCH":"2021-11-25T16:56:59.370144","CLASSIFICATION_TYPE":"U","INCLINATION":"53.0558","PERIOD":"95.593","GP_ID":"190492702","OBJECT_ID":"2021-018AS","OBJECT_TYPE":"PAYLOAD","MEAN_ANOMALY":"285.5600","MEAN_MOTION":"15.06393833","CENTER_NAME":"EARTH","APOAPSIS":"548.186","SITE":"AFETR","SEMIMAJOR_AXIS":"6925.367","EPHEMERIS_TYPE":"0","COUNTRY_CODE":"US","PERIAPSIS":"546.279"},{"APOAPSIS":"548.011","SITE":"AFETR","SEMIMAJOR_AXIS":"6925.367","PERIAPSIS":"546.452","EPHEMERIS_TYPE":"0","COUNTRY_CODE":"US","CLASSIFICATION_TYPE":"U","INCLINATION":"53.0551","GP_ID":"190493952","PERIOD":"95.593","NORAD_CAT_ID":"47828","TIME_SYSTEM":"UTC","MEAN_ELEMENT_THEORY":"SGP4","LAUNCH_DATE":"2021-03-11","EPOCH":"2021-11-25T17:32:50.865792","MEAN_ANOMALY":"282.5344","MEAN_MOTION":"15.06394130","CENTER_NAME":"EARTH","OBJECT_ID":"2021-018AT","OBJECT_TYPE":"PAYLOAD","ARG_OF_PERICENTER":"77.5771","FILE":"3224126","BSTAR":"-0.00003036200000","REF_FRAME":"TEME","OBJECT_NAME":"STARLINK-2415","ECCENTRICITY":"0.00011250","MEAN_MOTION_DDOT":"0.0000000000000","ELEMENT_SET_NO":"999","RCS_SIZE":"LARGE","RA_OF_ASC_NODE":"86.9902","TLE_LINE2":"2 47828  53.0551  86.9902 0001125  77.5771 282.5344 15.06394130 40584","TLE_LINE1":"1 47828U 21018AT  21329.73114428 -.00000733  00000-0 -30362-4 0  9991","REV_AT_EPOCH":"4058","MEAN_MOTION_DOT":"-0.00000733","DECAY_DATE":null}];
